{
  "norad_id": 63584,
  "name": "STARLINK-33820",
  "history": [
    {
      "epoch": "2026-03-28T16:54:35.565984",
      "apogee_km": 483.63759306049724,
      "perigee_km": 482.33987973871535,
      "latitude_deg": -41.29062035600188,
      "longitude_deg": -113.96048224018887,
      "semi_major_axis_km": 6861.1257363996065,
      "eccentricity": 9.457e-05,
      "inclination_deg": 43.0011,
      "raan_deg": 213.8574,
      "arg_perigee_deg": 265.6135,
      "mean_anomaly_deg": 94.4609,
      "mean_motion_rev_day": 15.27600158
    }
  ]
}